0 COSMOS 785
1 08473U 75116A   13282.46377215 -.00000096  00000-0 -72922-5 0  4161
2 08473 065.0800 044.7583 0064595 101.5583 327.8152 13.82114742908914
0 COSMOS 785
1 08473U 75116A   13283.47219025 -.00000086  00000-0  13572-5 0  4172
2 08473 065.0802 042.1628 0064566 101.1326 305.3887 13.82114903909058
0 COSMOS 785
1 08473U 75116A   13283.68009113  .00000000  00000-0  00000+0 0  4182
2 08473 065.0788 041.6326 0064731 101.4696 259.4115 13.82114323909089
0 COSMOS 785
1 08473U 75116A   13285.81311160 -.00000082  00000-0  54939-5 0  4195
2 08473 065.0804 036.1377 0064529 100.1286 073.0988 13.82114755909378
0 COSMOS 785
1 08473U 75116A   13286.81968043 -.00000077  00000-0  96131-5 0  4200
2 08473 065.0805 033.5471 0064545 099.6945 041.4802 13.82114557909517
0 COSMOS 785
1 08473U 75116A   13288.03018066 -.00000076  00000-0  10562-4 0  4210
2 08473 065.0805 030.4316 0064524 099.1818 304.5526 13.82114477909687
0 COSMOS 785
1 08473U 75116A   13289.48008112 -.00000049  00000-0  34874-4 0  4224
2 08473 065.0804 026.7000 0064497 098.5583 318.8162 13.82114545909887
0 COSMOS 785
1 08473U 75116A   13290.64565740 -.00000052  00000-0  32590-4 0  4237
2 08473 065.0802 023.7002 0064448 098.0500 358.3749 13.82114576910048
0 COSMOS 785
1 08473U 75116A   13292.52439860 -.00000053  00000-0  31586-4 0  4245
2 08473 065.0801 018.8649 0064465 097.2406 346.4205 13.82114836910307
0 COSMOS 785
1 08473U 75116A   13293.76675491 -.00000060  00000-0  24770-4 0  4250
2 08473 065.0800 015.6673 0064468 096.7046 048.0088 13.82115092910472
0 COSMOS 785
1 08473U 75116A   13294.77817145 -.00000068  00000-0  18026-4 0  4262
2 08473 065.0800 013.0642 0064459 096.2708 040.5094 13.82115243910618
0 COSMOS 785
1 08473U 75116A   13295.79137825 -.00000069  00000-0  17420-4 0  4274
2 08473 065.0800 010.4564 0064453 095.8355 041.9193 13.82115223910757
